{
  "name": "SATGUS",
  "line1": "1 62713U 25009DJ  26144.19862610  .00004836  00000+0  38466-3 0  9995",
  "line2": "2 62713  97.6987 225.8037 0008555 181.5473 178.5726 15.00855603 73960",
  "fetched_at": "2026-05-25T00:46:09.002436+00:00"
}